STARLINK-34572          
1 64720U 25142AA  26198.82517213 -.00022599  00000+0 -18900-2 0  9996
2 64720  70.0022 346.3420 0003675 271.8686  88.2052 14.98376529 59141
STARLINK-34558          
1 64721U 25142AB  26198.82536077  .00001308  00000+0  11736-3 0  9990
2 64721  70.0024 346.3382 0002721 269.1595  90.9252 14.98341980 58954
STARLINK-34393          
1 64724U 25144A   26198.53654339  .00003087  00000+0  10248-3 0  9998
2 64724  53.1609 297.0960 0000863  74.1097 286.0001 15.34392015 59618
STARLINK-34562          
1 64725U 25144B   26198.56373664 -.00007154  00000+0 -22970-3 0  9997
2 64725  53.1591 297.9756 0000994  94.7330 265.3784 15.30195122 59573
STARLINK-34557          
1 64726U 25144C   26198.69839000  .00003067  00000+0  10195-3 0  9996
2 64726  53.1582 296.6822 0000606  53.5259 306.5800 15.34370951 59629
STARLINK-34242          
1 64727U 25144D   26198.70176519  .00006222  00000+0  22196-3 0  9998
2 64727  53.1570 297.4116 0000956  94.8915 265.2195 15.30205730 59612
STARLINK-34239          
1 64728U 25144E   26198.74668067  .00008921  00000+0  27480-3 0  9996
2 64728  53.1596 296.2710 0000412  56.2176 303.8866 15.34402552 59637
STARLINK-34588          
1 64729U 25144F   26198.68804954  .00013207  00000+0  45725-3 0  9992
2 64729  53.1581 297.3259 0000823 116.7841 243.3244 15.30198197 59618
STARLINK-34606          
1 64730U 25144G   26198.61009288  .00011883  00000+0  36221-3 0  9993
2 64730  53.1598 296.8375 0000717 180.3096 179.7906 15.34404894 59617
STARLINK-34552          
1 64731U 25144H   26198.71511685  .00014233  00000+0  44310-3 0  9994
2 64731  53.1593 296.7807 0000810 105.2239 254.8853 15.33560392 59623
STARLINK-34596          
1 64732U 25144J   26198.53444190  .00009243  00000+0  28436-3 0  9997
2 64732  53.1602 297.0829 0001307  71.1483 288.9662 15.34399194 59602
STARLINK-34556          
1 64733U 25144K   26198.62426181  .00009527  00000+0  29282-3 0  9993
2 64733  53.1575 292.6733 0001190  91.2107 268.9032 15.34389757 59673
STARLINK-34591          
1 64734U 25144L   26198.91668981 -.00030416  00000+0 -89261-3 0  9998
2 64734  53.1578 295.7753 0001393  95.0840 333.4462 15.34401976  5814
STARLINK-34587          
1 64735U 25144M   26198.30038344  .00004224  00000+0  15463-3 0  9995
2 64735  53.1570 299.1758 0001105  62.0013 298.1100 15.30207224 59504
STARLINK-34130          
1 64736U 25144N   26198.68364485  .00010540  00000+0  32254-3 0  9990
2 64736  53.1592 296.5871 0000946  78.3049 281.8060 15.34410671 59620
STARLINK-34619          
1 64737U 25144P   26198.64067689  .00008732  00000+0  30670-3 0  9993
2 64737  53.1570 297.7365 0001062  94.3747 265.7375 15.30188905 59607
STARLINK-34597          
1 64738U 25144Q   26198.73826673  .00010927  00000+0  33408-3 0  9991
2 64738  53.1602 296.2166 0000814  95.9906 264.1189 15.34398616 59618
STARLINK-34471          
1 64739U 25144R   26198.62378554  .00006728  00000+0  23903-3 0  9993
2 64739  53.1584 297.6321 0001054  96.2377 263.8744 15.30204993 59544
STARLINK-34208          
1 64740U 25144S   26198.95625337  .00012405  00000+0  37768-3 0  9998
2 64740  53.1553 291.1872 0000437  50.4013 309.7028 15.34398630 59726
STARLINK-34205          
1 64741U 25144T   26198.67102441  .00015660  00000+0  47363-3 0  9992
2 64741  53.1591 296.5085 0000824  83.9937 276.1160 15.34401198 59627
STARLINK-34607          
1 64742U 25144U   26198.69543495  .00006061  00000+0  21657-3 0  9996
2 64742  53.1577 297.3685 0000821  80.9017 279.2076 15.30201638 59599
STARLINK-34236          
1 64743U 25144V   26198.67733422  .00007759  00000+0  24055-3 0  9996
2 64743  53.1602 296.5470 0000330  77.5302 282.5737 15.34397551 59625
STARLINK-34185          
1 64744U 25144W   26198.91668981 -.00111778  00000+0 -34332-2 0  9998
2 64744  53.1585 295.8912 0001766  88.1300 278.3228 15.33591883  5665
STARLINK-34581          
1 64745U 25144X   26198.70387292  .00009041  00000+0  31693-3 0  9994
2 64745  53.1575 297.4188 0000724 118.6890 241.4183 15.30208149 59616
STARLINK-34592          
1 64746U 25144Y   26198.91668981 -.00028981  00000+0 -87272-3 0  9995
2 64746  53.1588 283.5343 0001450  86.8311  66.1204 15.33567597  5829
STARLINK-34589          
1 64747U 25144Z   26198.67515182  .00002970  00000+0  99022-4 0  9998
2 64747  53.1582 284.3977 0000958  76.6403 283.4706 15.34391400 59792
STARLINK-34536          
1 64748U 25144AA  26197.57454979  .00013029  00000+0  45135-3 0  9995
2 64748  53.1589 302.4562 0001026 105.9011 254.2103 15.30191905 59443
STARLINK-34595          
1 64749U 25144AB  26198.62062192  .00004648  00000+0  16900-3 0  9990
2 64749  53.1586 297.6061 0000859 101.9738 258.1359 15.30192838 59605
STARLINK-34531          
1 64750U 25144AC  26198.66891996  .00012866  00000+0  39124-3 0  9992
2 64750  53.1600 296.4949 0000665  82.6635 277.4443 15.34402596 59621
STARLINK-33965          
1 64755U 25147A   26198.71719953  .00012008  00000+0  36598-3 0  9998
2 64755  53.1607 356.3759 0001338  88.4644 271.6512 15.34398407 58739
