OBJECT_NAME,OBJECT_ID,EPOCH,MEAN_MOTION,ECCENTRICITY,INCLINATION,RA_OF_ASC_NODE,ARG_OF_PERICENTER,MEAN_ANOMALY,EPHEMERIS_TYPE,CLASSIFICATION_TYPE,NORAD_CAT_ID,ELEMENT_SET_NO,REV_AT_EPOCH,BSTAR,MEAN_MOTION_DOT,MEAN_MOTION_DDOT
STARLINK-34572,2025-142AA,2026-07-17T19:48:14.872032,14.98376529,.0003675,70.0022,346.3420,271.8686,88.2052,0,U,64720,999,5914,-.18899542E-2,-.22599E-3,0
STARLINK-34558,2025-142AB,2026-07-17T19:48:31.170528,14.98341980,.00027211,70.0024,346.3382,269.1595,90.9252,0,U,64721,999,5895,.11735613E-3,.1308E-4,0
STARLINK-34393,2025-144A,2026-07-17T12:52:37.348896,15.34392015,.0000863,53.1609,297.0960,74.1097,286.0001,0,U,64724,999,5961,.10248E-3,.3087E-4,0
STARLINK-34562,2025-144B,2026-07-17T13:31:46.845696,15.30195122,.0000994,53.1591,297.9756,94.7330,265.3784,0,U,64725,999,5957,-.2297E-3,-.7154E-4,0
STARLINK-34557,2025-144C,2026-07-17T16:45:40.896000,15.34370951,.00006068,53.1582,296.6822,53.5259,306.5800,0,U,64726,999,5962,.10195074E-3,.3067E-4,0
STARLINK-34242,2025-144D,2026-07-17T16:50:32.512416,15.30205730,.00009566,53.1570,297.4116,94.8915,265.2195,0,U,64727,999,5961,.22196192E-3,.6222E-4,0
STARLINK-34239,2025-144E,2026-07-17T17:55:13.209888,15.34402552,.00004123,53.1596,296.2710,56.2176,303.8866,0,U,64728,999,5963,.27480353E-3,.8921E-4,0
STARLINK-34588,2025-144F,2026-07-17T16:30:47.480256,15.30198197,.00008235,53.1581,297.3259,116.7841,243.3244,0,U,64729,999,5961,.45725095E-3,.13207E-3,0
STARLINK-34606,2025-144G,2026-07-17T14:38:32.024832,15.34404894,.00007177,53.1598,296.8375,180.3096,179.7906,0,U,64730,999,5961,.3622074E-3,.11883E-3,0
STARLINK-34552,2025-144H,2026-07-17T17:09:46.095840,15.33560392,.00008107,53.1593,296.7807,105.2239,254.8853,0,U,64731,999,5962,.44309997E-3,.14233E-3,0
STARLINK-34596,2025-144J,2026-07-17T12:49:35.780160,15.34399194,.0001307,53.1602,297.0829,71.1483,288.9662,0,U,64732,999,5960,.28436E-3,.9243E-4,0
STARLINK-34556,2025-144K,2026-07-17T14:58:56.220384,15.34389757,.00011903,53.1575,292.6733,91.2107,268.9032,0,U,64733,999,5967,.29281942E-3,.9527E-4,0
STARLINK-34591,2025-144L,2026-07-17T22:00:01.999584,15.34401976,.00013936,53.1578,295.7753,95.0840,333.4462,0,U,64734,999,581,-.89260946E-3,-.30416E-3,0
STARLINK-34587,2025-144M,2026-07-17T07:12:33.129216,15.30207224,.0001105,53.1570,299.1758,62.0013,298.1100,0,U,64735,999,5950,.15463E-3,.4224E-4,0
STARLINK-34130,2025-144N,2026-07-17T16:24:26.915040,15.34410671,.00009464,53.1592,296.5871,78.3049,281.8060,0,U,64736,999,5962,.32253869E-3,.1054E-3,0
STARLINK-34619,2025-144P,2026-07-17T15:22:34.483296,15.30188905,.00010623,53.1570,297.7365,94.3747,265.7375,0,U,64737,999,5960,.30669553E-3,.8732E-4,0
STARLINK-34597,2025-144Q,2026-07-17T17:43:06.245472,15.34398616,.00008143,53.1602,296.2166,95.9906,264.1189,0,U,64738,999,5961,.33407706E-3,.10927E-3,0
STARLINK-34471,2025-144R,2026-07-17T14:58:15.070656,15.30204993,.00010545,53.1584,297.6321,96.2377,263.8744,0,U,64739,999,5954,.23903256E-3,.6728E-4,0
STARLINK-34208,2025-144S,2026-07-17T22:57:00.291168,15.34398630,.00004377,53.1553,291.1872,50.4013,309.7028,0,U,64740,999,5972,.37768089E-3,.12405E-3,0
STARLINK-34205,2025-144T,2026-07-17T16:06:16.509024,15.34401198,.00008246,53.1591,296.5085,83.9937,276.1160,0,U,64741,999,5962,.47363138E-3,.1566E-3,0
STARLINK-34607,2025-144U,2026-07-17T16:41:25.579680,15.30201638,.00008217,53.1577,297.3685,80.9017,279.2076,0,U,64742,999,5959,.2165705E-3,.6061E-4,0
STARLINK-34236,2025-144V,2026-07-17T16:15:21.676608,15.34397551,.00003306,53.1602,296.5470,77.5302,282.5737,0,U,64743,999,5962,.24055087E-3,.7759E-4,0
STARLINK-34185,2025-144W,2026-07-17T22:00:01.999584,15.33591883,.00017666,53.1585,295.8912,88.1300,278.3228,0,U,64744,999,566,-.34332035E-2,-.111778E-2,0
STARLINK-34581,2025-144X,2026-07-17T16:53:34.620288,15.30208149,.00007247,53.1575,297.4188,118.6890,241.4183,0,U,64745,999,5961,.31692685E-3,.9041E-4,0
STARLINK-34592,2025-144Y,2026-07-17T22:00:01.999584,15.33567597,.00014508,53.1588,283.5343,86.8311,66.1204,0,U,64746,999,582,-.87271753E-3,-.28981E-3,0
STARLINK-34589,2025-144Z,2026-07-17T16:12:13.117248,15.34391400,.00009582,53.1582,284.3977,76.6403,283.4706,0,U,64747,999,5979,.99021835E-4,.297E-4,0
STARLINK-34536,2025-144AA,2026-07-16T13:47:21.101856,15.30191905,.00010261,53.1589,302.4562,105.9011,254.2103,0,U,64748,999,5944,.45134875E-3,.13029E-3,0
STARLINK-34595,2025-144AB,2026-07-17T14:53:41.733888,15.30192838,.00008593,53.1586,297.6061,101.9738,258.1359,0,U,64749,999,5960,.16900267E-3,.4648E-4,0
STARLINK-34531,2025-144AC,2026-07-17T16:03:14.684544,15.34402596,.00006659,53.1600,296.4949,82.6635,277.4443,0,U,64750,999,5962,.39124142E-3,.12866E-3,0
STARLINK-33965,2025-147A,2026-07-17T17:12:46.039392,15.34398407,.00013383,53.1607,356.3759,88.4644,271.6512,0,U,64755,999,5873,.36598334E-3,.12008E-3,0
